STARLINK-31259          
1 59076U 24041C   26068.08745656 -.00001117  00000+0 -31083-4 0  9991
2 59076  43.0014 313.7493 0001253 278.0582  82.0128 15.27573060113130
FLOCK 4G-15             
1 62678U 25009BX  26068.71779869  .00012647  00000+0  47575-3 0  9991
2 62678  97.4054 151.1927 0003699 316.8208  43.2740 15.27266411121358
